start=new Date('2022-04-21T00:00:00.000Z').valueOf();
sats=[{"TLE_LINE2":"2 44930  53.0533 237.6133 0001558  55.9007 304.2130 15.06407135125947","OBJECT_NAME":"STARLINK-1123","CLASSIFICATION_TYPE":"U","COUNTRY_CODE":"US","PERIAPSIS":"546.113","MEAN_ELEMENT_THEORY":"SGP4","MEAN_MOTION_DDOT":"0.0000000000000","ELEMENT_SET_NO":"999","EPOCH":"2022-04-20T11:55:13.406016","TIME_SYSTEM":"UTC","TLE_LINE1":"1 44930U 20001S   22110.49668294 -.00000182  00000-0  67051-5 0  9993","REF_FRAME":"TEME","APOAPSIS":"548.271","DECAY_DATE":null,"MEAN_MOTION":"15.06407135","CENTER_NAME":"EARTH","LAUNCH_DATE":"2020-01-07","OBJECT_TYPE":"PAYLOAD","NORAD_CAT_ID":"44930","FILE":"3409639","PERIOD":"95.592","EPHEMERIS_TYPE":"0","BSTAR":"0.00000670510000","ECCENTRICITY":"0.00015580","GP_ID":"201678298","SITE":"AFETR","RCS_SIZE":"LARGE","MEAN_MOTION_DOT":"-0.00000182","SEMIMAJOR_AXIS":"6925.327","OBJECT_ID":"2020-001S","INCLINATION":"53.0533","MEAN_ANOMALY":"304.2130","RA_OF_ASC_NODE":"237.6133","ARG_OF_PERICENTER":"55.9007","REV_AT_EPOCH":"12594"},{"ECCENTRICITY":"0.00024360","BSTAR":"-0.00006889400000","EPHEMERIS_TYPE":"0","NORAD_CAT_ID":"44931","FILE":"3409979","PERIOD":"95.321","ARG_OF_PERICENTER":"0.3371","REV_AT_EPOCH":"12679","INCLINATION":"53.0528","MEAN_ANOMALY":"359.7621","RA_OF_ASC_NODE":"232.2837","RCS_SIZE":"LARGE","SITE":"AFETR","MEAN_MOTION_DOT":"-0.00001447","OBJECT_ID":"2020-001T","SEMIMAJOR_AXIS":"6912.252","GP_ID":"201711941","ELEMENT_SET_NO":"999","TIME_SYSTEM":"UTC","EPOCH":"2022-04-20T20:19:12.378720","MEAN_MOTION_DDOT":"0.0000000000000","MEAN_ELEMENT_THEORY":"SGP4","TLE_LINE2":"2 44931  53.0528 232.2837 0002436   0.3371 359.7621 15.10683317126795","OBJECT_NAME":"STARLINK-1128","COUNTRY_CODE":"US","CLASSIFICATION_TYPE":"U","PERIAPSIS":"532.433","CENTER_NAME":"EARTH","LAUNCH_DATE":"2020-01-07","OBJECT_TYPE":"PAYLOAD","MEAN_MOTION":"15.10683317","APOAPSIS":"535.801","REF_FRAME":"TEME","DECAY_DATE":null,"TLE_LINE1":"1 44931U 20001T   22110.84667105 -.00001447  00000-0 -68894-4 0  9994"},{"ARG_OF_PERICENTER":"53.7175","REV_AT_EPOCH":"12722","INCLINATION":"53.0538","MEAN_ANOMALY":"306.3987","RA_OF_ASC_NODE":"236.1849","SITE":"AFETR","MEAN_MOTION_DOT":"-0.00001090","RCS_SIZE":"LARGE","OBJECT_ID":"2020-001U","SEMIMAJOR_AXIS":"6925.355","GP_ID":"201712692","ECCENTRICITY":"0.00018800","BSTAR":"-0.00005426300000","EPHEMERIS_TYPE":"0","NORAD_CAT_ID":"44932","PERIOD":"95.592","FILE":"3409979","CENTER_NAME":"EARTH","LAUNCH_DATE":"2020-01-07","OBJECT_TYPE":"PAYLOAD","MEAN_MOTION":"15.06397771","APOAPSIS":"548.522","REF_FRAME":"TEME","DECAY_DATE":null,"TLE_LINE1":"1 44932U 20001U   22110.81736144 -.00001090  00000-0 -54263-4 0  9991","ELEMENT_SET_NO":"999","EPOCH":"2022-04-20T19:37:00.028416","TIME_SYSTEM":"UTC","MEAN_MOTION_DDOT":"0.0000000000000","MEAN_ELEMENT_THEORY":"SGP4","TLE_LINE2":"2 44932  53.0538 236.1849 0001880  53.7175 306.3987 15.06397771127222","OBJECT_NAME":"STARLINK-1130","COUNTRY_CODE":"US","PERIAPSIS":"545.918","CLASSIFICATION_TYPE":"U"},{"TLE_LINE2":"2 44933  53.0545 236.0737 0001687  55.6751 304.4397 15.06406558127286","OBJECT_NAME":"STARLINK-1144","COUNTRY_CODE":"US","PERIAPSIS":"546.025","CLASSIFICATION_TYPE":"U","MEAN_ELEMENT_THEORY":"SGP4","MEAN_MOTION_DDOT":"0.0000000000000","ELEMENT_SET_NO":"999","EPOCH":"2022-04-20T20:14:08.862432","TIME_SYSTEM":"UTC","TLE_LINE1":"1 44933U 20001V   22110.84315813 -.00000029  00000-0  16931-4 0  9991","APOAPSIS":"548.362","REF_FRAME":"TEME","DECAY_DATE":null,"MEAN_MOTION":"15.06406558","CENTER_NAME":"EARTH","LAUNCH_DATE":"2020-01-07","OBJECT_TYPE":"PAYLOAD","NORAD_CAT_ID":"44933","PERIOD":"95.592","FILE":"3409979","EPHEMERIS_TYPE":"0","BSTAR":"0.00001693100000","ECCENTRICITY":"0.00016870","GP_ID":"201711440","SITE":"AFETR","RCS_SIZE":"LARGE","MEAN_MOTION_DOT":"-0.00000029","SEMIMAJOR_AXIS":"6925.328","OBJECT_ID":"2020-001V","INCLINATION":"53.0545","MEAN_ANOMALY":"304.4397","RA_OF_ASC_NODE":"236.0737","ARG_OF_PERICENTER":"55.6751","REV_AT_EPOCH":"12728"},{"MEAN_ELEMENT_THEORY":"SGP4","TLE_LINE2":"2 44934  53.0543 217.2041 0002062  35.1160 324.9964 15.06391348126230","OBJECT_NAME":"STARLINK-1071","COUNTRY_CODE":"US","CLASSIFICATION_TYPE":"U","PERIAPSIS":"545.812","EPOCH":"2022-04-20T14:10:34.901472","TIME_SYSTEM":"UTC","ELEMENT_SET_NO":"999","MEAN_MOTION_DDOT":"0.0000000000000","DECAY_DATE":null,"APOAPSIS":"548.668","REF_FRAME":"TEME","TLE_LINE1":"1 44934U 20001W   22110.59068173  .00006622  00000-0  46315-3 0  9990","LAUNCH_DATE":"2020-01-07","CENTER_NAME":"EARTH","OBJECT_TYPE":"PAYLOAD","MEAN_MOTION":"15.06391348","EPHEMERIS_TYPE":"0","NORAD_CAT_ID":"44934","PERIOD":"95.593","FILE":"3409639","ECCENTRICITY":"0.00020620","BSTAR":"0.00046315000000","RCS_SIZE":"LARGE","SITE":"AFETR","MEAN_MOTION_DOT":"0.00006622","OBJECT_ID":"2020-001W","SEMIMAJOR_AXIS":"6925.375","GP_ID":"201678798","REV_AT_EPOCH":"12623","ARG_OF_PERICENTER":"35.1160","MEAN_ANOMALY":"324.9964","RA_OF_ASC_NODE":"217.2041","INCLINATION":"53.0543"},{"MEAN_MOTION_DDOT":"0.0000000000000","ELEMENT_SET_NO":"999","TIME_SYSTEM":"UTC","EPOCH":"2022-04-20T18:25:21.127296","COUNTRY_CODE":"US","CLASSIFICATION_TYPE":"U","PERIAPSIS":"546.163","TLE_LINE2":"2 44937  53.0538 216.4087 0001528  61.9299 298.1845 15.06397514126268","OBJECT_NAME":"STARLINK-1079","MEAN_ELEMENT_THEORY":"SGP4","MEAN_MOTION":"15.06397514","OBJECT_TYPE":"PAYLOAD","CENTER_NAME":"EARTH","LAUNCH_DATE":"2020-01-07","TLE_LINE1":"1 44937U 20001Z   22110.76760564  .00002189  00000-0  16584-3 0  9994","APOAPSIS":"548.279","REF_FRAME":"TEME","DECAY_DATE":null,"BSTAR":"0.00016584000000","ECCENTRICITY":"0.00015280","FILE":"3409979","PERIOD":"95.592","NORAD_CAT_ID":"44937","EPHEMERIS_TYPE":"0","INCLINATION":"53.0538","MEAN_ANOMALY":"298.1845","RA_OF_ASC_NODE":"216.4087","ARG_OF_PERICENTER":"61.9299","REV_AT_EPOCH":"12626","GP_ID":"201712442","OBJECT_ID":"2020-001Z","SEMIMAJOR_AXIS":"6925.356","SITE":"AFETR","RCS_SIZE":"LARGE","MEAN_MOTION_DOT":"0.00002189"},{"MEAN_ELEMENT_THEORY":"SGP4","COUNTRY_CODE":"US","PERIAPSIS":"546.052","CLASSIFICATION_TYPE":"U","TLE_LINE2":"2 44938  53.0559 216.8568 0001748  48.9762 311.1378 15.06384043126242","OBJECT_NAME":"STARLINK-1082","EPOCH":"2022-04-20T16:02:03.127200","TIME_SYSTEM":"UTC","ELEMENT_SET_NO":"999","MEAN_MOTION_DDOT":"0.0000000000000","DECAY_DATE":null,"APOAPSIS":"548.473","REF_FRAME":"TEME","TLE_LINE1":"1 44938U 20001AA  22110.66809175 -.00000249  00000-0  22145-5 0  9994","OBJECT_TYPE":"PAYLOAD","LAUNCH_DATE":"2020-01-07","CENTER_NAME":"EARTH","MEAN_MOTION":"15.06384043","EPHEMERIS_TYPE":"0","FILE":"3409979","PERIOD":"95.593","NORAD_CAT_ID":"44938","ECCENTRICITY":"0.00017480","BSTAR":"0.00000221450000","SEMIMAJOR_AXIS":"6925.397","OBJECT_ID":"2020-001AA","SITE":"AFETR","RCS_SIZE":"LARGE","MEAN_MOTION_DOT":"-0.00000249","GP_ID":"201712192","REV_AT_EPOCH":"12624","ARG_OF_PERICENTER":"48.9762","MEAN_ANOMALY":"311.1378","RA_OF_ASC_NODE":"216.8568","INCLINATION":"53.0559"},{"LAUNCH_DATE":"2020-01-07","CENTER_NAME":"EARTH","OBJECT_TYPE":"PAYLOAD","MEAN_MOTION":"15.06404187","DECAY_DATE":null,"REF_FRAME":"TEME","APOAPSIS":"548.058","TLE_LINE1":"1 44939U 20001AB  22110.80814946  .00004147  00000-0  29706-3 0  9991","TIME_SYSTEM":"UTC","EPOCH":"2022-04-20T19:23:44.113344","ELEMENT_SET_NO":"999","MEAN_MOTION_DDOT":"0.0000000000000","MEAN_ELEMENT_THEORY":"SGP4","OBJECT_NAME":"STARLINK-1083","TLE_LINE2":"2 44939  53.0535 216.2247 0001238  31.3401 328.7661 15.06404187126268","COUNTRY_CODE":"US","CLASSIFICATION_TYPE":"U","PERIAPSIS":"546.343","REV_AT_EPOCH":"12626","ARG_OF_PERICENTER":"31.3401","RA_OF_ASC_NODE":"216.2247","MEAN_ANOMALY":"328.7661","INCLINATION":"53.0535","SITE":"AFETR","RCS_SIZE":"LARGE","MEAN_MOTION_DOT":"0.00004147","SEMIMAJOR_AXIS":"6925.336","OBJECT_ID":"2020-001AB","GP_ID":"201710940","ECCENTRICITY":"0.00012380","BSTAR":"0.00029706000000","EPHEMERIS_TYPE":"0","NORAD_CAT_ID":"44939","PERIOD":"95.592","FILE":"3409979"},{"ARG_OF_PERICENTER":"49.1565","REV_AT_EPOCH":"12622","INCLINATION":"53.0533","RA_OF_ASC_NODE":"217.3648","MEAN_ANOMALY":"310.9613","SITE":"AFETR","RCS_SIZE":"LARGE","MEAN_MOTION_DOT":"-0.00000283","OBJECT_ID":"2020-001AC","SEMIMAJOR_AXIS":"6925.351","GP_ID":"201678299","ECCENTRICITY":"0.00021770","BSTAR":"-0.00000006127100","EPHEMERIS_TYPE":"0","NORAD_CAT_ID":"44940","PERIOD":"95.592","FILE":"3409639","CENTER_NAME":"EARTH","LAUNCH_DATE":"2020-01-07","OBJECT_TYPE":"PAYLOAD","MEAN_MOTION":"15.06399049","APOAPSIS":"548.724","REF_FRAME":"TEME","DECAY_DATE":null,"TLE_LINE1":"1 44940U 20001AC  22110.55382302 -.00000283  00000-0 -61271-7 0  9997","ELEMENT_SET_NO":"999","TIME_SYSTEM":"UTC","EPOCH":"2022-04-20T13:17:30.308928","MEAN_MOTION_DDOT":"0.0000000000000","MEAN_ELEMENT_THEORY":"SGP4","TLE_LINE2":"2 44940  53.0533 217.3648 0002177  49.1565 310.9613 15.06399049126222","OBJECT_NAME":"STARLINK-1091","COUNTRY_CODE":"US","PERIAPSIS":"545.709","CLASSIFICATION_TYPE":"U"},{"BSTAR":"0.00022670000000","ECCENTRICITY":"0.00016130","FILE":"3409979","PERIOD":"95.592","NORAD_CAT_ID":"44941","EPHEMERIS_TYPE":"0","MEAN_ANOMALY":"312.6931","RA_OF_ASC_NODE":"216.3747","INCLINATION":"53.0541","REV_AT_EPOCH":"12626","ARG_OF_PERICENTER":"47.4194","GP_ID":"201711942","OBJECT_ID":"2020-001AD","SEMIMAJOR_AXIS":"6925.341","MEAN_MOTION_DOT":"0.00003097","SITE":"AFETR","RCS_SIZE":"LARGE","MEAN_MOTION_DDOT":"0.0000000000000","EPOCH":"2022-04-20T18:35:57.389856","TIME_SYSTEM":"UTC","ELEMENT_SET_NO":"999","COUNTRY_CODE":"US","CLASSIFICATION_TYPE":"U","PERIAPSIS":"546.089","OBJECT_NAME":"STARLINK-1094","TLE_LINE2":"2 44941  53.0541 216.3747 0001613  47.4194 312.6931 15.06402343126262","MEAN_ELEMENT_THEORY":"SGP4","MEAN_MOTION":"15.06402343","OBJECT_TYPE":"PAYLOAD","LAUNCH_DATE":"2020-01-07","CENTER_NAME":"EARTH","TLE_LINE1":"1 44941U 20001AD  22110.77496979  .00003097  00000-0  22670-3 0  9998","DECAY_DATE":null,"REF_FRAME":"TEME","APOAPSIS":"548.323"}];
